NORAD_CAT_ID,OBJECT_NAME,OBJECT_TYPE,EPOCH,MEAN_MOTION,ECCENTRICITY,INCLINATION,RA_OF_ASC_NODE,ARG_OF_PERICENTER,MEAN_ANOMALY,BSTAR,MEAN_MOTION_DOT,MEAN_MOTION_DDOT,TLE_LINE0,TLE_LINE1,TLE_LINE2,SEMIMAJOR_AXIS,PERIOD,APOGEE,PERIGEE,DECAYED
49442.0,STARLINK-3098,PAYLOAD,2021-12-22 20:00:01,15.73239664,0.0002235,53.218,298.5241,28.6755,146.6347,-0.00036995,-0.00052314,0.0,0 STARLINK-3098,1 49442U 21104AL  21356.83334491 -.00052314  00000-0 -36995-3 0  9995,2 49442  53.2180 298.5241 0002235  28.6755 146.6347 15.73239664  7475,6727.781999999997,91.531,351.151,348.14300000000014,0.0
49442.0,STARLINK-3098,PAYLOAD,2021-12-22 22:00:00,15.73234765,0.0002281,53.2181,298.1122,29.1414,258.4093,-0.00039668,-0.00056013,0.0,0 STARLINK-3098,1 49442U 21104AL  21356.91667824 -.00056013  00000-0 -39668-3 0  9993,2 49442  53.2181 298.1122 0002281  29.1414 258.4093 15.73234765  3708,6727.795999999999,91.531,351.196,348.126,0.0
49442.0,STARLINK-3098,PAYLOAD,2021-12-23 06:00:00,15.73206685,0.0002529,53.2182,296.4647,27.3525,349.1564,0.00022154,0.00030596,0.0,0 STARLINK-3098,1 49442U 21104AL  21357.25001157  .00030596  00000-0  22154-3 0  9990,2 49442  53.2182 296.4647 0002529  27.3525 349.1564 15.73206685  7536,6727.876,91.533,351.4430000000001,348.04,0.0
49442.0,STARLINK-3098,PAYLOAD,2021-12-23 14:00:01,15.7318612,0.0002251,53.2181,294.8136,24.9487,80.5164,0.00032229,0.00044828,0.0,0 STARLINK-3098,1 49442U 21104AL  21357.58334491  .00044828  00000-0  32229-3 0  9993,2 49442  53.2181 294.8136 0002251  24.9487  80.5164 15.73186120  3687,6727.935,91.534,351.314,348.285,0.0
49442.0,STARLINK-3098,PAYLOAD,2021-12-23 22:00:00,15.73251543,0.0002164,53.2179,293.1643,24.3807,170.0005,-0.00066402,-0.00093004,0.0,0 STARLINK-3098,1 49442U 21104AL  21357.91667824 -.00093004  00000-0 -66402-3 0  9991,2 49442  53.2179 293.1643 0002164  24.3807 170.0005 15.73251543  7643,6727.748000000001,91.53,351.069,348.157,0.0
49442.0,STARLINK-3098,PAYLOAD,2021-12-24 14:00:01,15.72968128,0.0002317,53.2174,289.8568,30.5608,341.6742,0.0016942999999999,0.0024173,0.0,0 STARLINK-3098,1 49442U 21104AL  21358.58334491  .00241730  00000-0  16943-2 0  9999,2 49442  53.2174 289.8568 0002317  30.5608 341.6742 15.72968128  3692,6728.556,91.547,351.98,348.862,0.0
49442.0,STARLINK-3098,PAYLOAD,2021-12-24 22:00:00,15.73201548,0.0002118,53.2172,288.2164,26.0327,74.9899,0.00062893,0.00088592,0.0,0 STARLINK-3098,1 49442U 21104AL  21358.91667824  .00088592  00000-0  62893-3 0  9996,2 49442  53.2172 288.2164 0002118  26.0327  74.9899 15.73201548  7793,6727.891,91.533,351.181,348.331,0.0
49442.0,STARLINK-3098,PAYLOAD,2021-12-25 06:00:00,15.73223171,0.000228,53.2173,286.5686,16.8812,173.1203,0.00015229,0.00020827,0.0,0 STARLINK-3098,1 49442U 21104AL  21359.25001157  .00020827  00000-0  15229-3 0  9993,2 49442  53.2173 286.5686 0002280  16.8812 173.1203 15.73223171  7854,6727.829000000002,91.532,351.228,348.16,0.0
49442.0,STARLINK-3098,PAYLOAD,2021-12-25 14:00:01,15.73239939,0.0002069,53.2173,284.9171,18.6933,260.2783,0.0001698,0.00023317,0.0,0 STARLINK-3098,1 49442U 21104AL  21359.58334491  .00023317  00000-0  16980-3 0  9991,2 49442  53.2173 284.9171 0002069  18.6933 260.2783 15.73239939  3681,6727.781,91.531,351.038,348.254,0.0
49442.0,STARLINK-3098,PAYLOAD,2021-12-25 22:00:00,15.7324196,0.0002152,53.217,283.2679,24.2177,343.7286,-0.00017483,-0.00025131,0.0,0 STARLINK-3098,1 49442U 21104AL  21359.91667824 -.00025131  00000-0 -17483-3 0  9994,2 49442  53.2170 283.2679 0002152  24.2177 343.7286 15.73241960  3692,6727.776,91.531,351.088,348.1930000000001,0.0
49442.0,STARLINK-3098,PAYLOAD,2021-12-26 06:00:02,15.73240817,0.000236,53.2165,281.6198,22.8582,74.1292,-0.00025573,-0.00036424,0.0,0 STARLINK-3098,1 49442U 21104AL  21360.25002315 -.00036424  00000-0 -25573-3 0  9997,2 49442  53.2165 281.6198 0002360  22.8582  74.1292 15.73240817  8001,6727.779,91.531,351.232,348.056,0.0
49442.0,STARLINK-3098,PAYLOAD,2021-12-26 14:00:01,15.73162811,0.0002095,53.2164,279.9682,24.8803,161.0102,8.018100000000001e-05,0.00010629,0.0,0 STARLINK-3098,1 49442U 21104AL  21360.58334491  .00010629  00000-0  80181-4 0  9990,2 49442  53.2164 279.9682 0002095  24.8803 161.0102 15.73162811  3661,6728.001,91.535,351.276,348.457,0.0
49442.0,STARLINK-3098,PAYLOAD,2021-12-26 22:00:00,15.73193369,0.0002123,53.2166,278.3194,28.244,246.528,3.1436e-05,3.792e-05,0.0,0 STARLINK-3098,1 49442U 21104AL  21360.91667824  .00003792  00000-0  31436-4 0  9998,2 49442  53.2166 278.3194 0002123  28.2440 246.5280 15.73193369  3681,6727.9140000000025,91.534,351.207,348.351,0.0
49442.0,STARLINK-3098,PAYLOAD,2021-12-27 14:00:01,15.731489300000002,0.0002013,53.2168,275.0197,22.8743,69.7362,0.0005495,0.00077042,0.0,0 STARLINK-3098,1 49442U 21104AL  21361.58334491  .00077042  00000-0  54950-3 0  9997,2 49442  53.2168 275.0197 0002013  22.8743  69.7362 15.73148930  8218,6728.041,91.536,351.26,348.551,0.0
49442.0,STARLINK-3098,PAYLOAD,2021-12-27 22:00:00,15.73208694,0.000213,53.2168,273.3711,25.0543,156.4427,5.597e-05,7.244e-05,0.0,0 STARLINK-3098,1 49442U 21104AL  21361.91667824  .00007244  00000-0  55970-4 0  9994,2 49442  53.2168 273.3711 0002130  25.0543 156.4427 15.73208694  3680,6727.87,91.533,351.168,348.302,0.0
49442.0,STARLINK-3098,PAYLOAD,2021-12-28 06:00:00,15.73244534,0.0002211,53.2162,271.7226,20.2059,250.2534,-0.00017234,-0.00024786,0.0,0 STARLINK-3098,1 49442U 21104AL  21362.25001157 -.00024786  00000-0 -17234-3 0  9995,2 49442  53.2162 271.7226 0002211  20.2059 250.2534 15.73244534  8327,6727.768,91.531,351.121,348.146,0.0
49442.0,STARLINK-3098,PAYLOAD,2021-12-28 14:00:01,15.73172371,0.0001887,53.2162,270.071,19.8676,339.5599,0.00057545,0.00080827,0.0,0 STARLINK-3098,1 49442U 21104AL  21362.58334491  .00080827  00000-0  57545-3 0  9996,2 49442  53.2162 270.0710 0001887  19.8676 339.5599 15.73172371  3713,6727.974,91.535,351.1090000000001,348.569,0.0
49442.0,STARLINK-3098,PAYLOAD,2021-12-28 22:00:00,15.73276652,0.0001928,53.2165,268.4225,17.6062,70.7629,-0.00069896,-0.0009791,0.0,0 STARLINK-3098,1 49442U 21104AL  21362.91667824 -.00097910  00000-0 -69896-3 0  9997,2 49442  53.2165 268.4225 0001928  17.6062  70.7629 15.73276652  3680,6727.677,91.529,350.839,348.245,0.0
49442.0,STARLINK-3098,PAYLOAD,2021-12-29 06:00:02,15.73215556,0.0002108,53.2165,266.7738,15.6647,161.738,-0.00022813,-0.00032538,0.0,0 STARLINK-3098,1 49442U 21104AL  21363.25002315 -.00032538  00000-0 -22813-3 0  9996,2 49442  53.2165 266.7738 0002108  15.6647 161.7380 15.73215556  8482,6727.851,91.532,351.134,348.298,0.0
49442.0,STARLINK-3098,PAYLOAD,2021-12-29 14:00:01,15.73204525,0.0002046,53.2175,265.1078,28.5142,237.6017,2.4648e-06,-2.75e-06,0.0,0 STARLINK-3098,1 49442U 21104AL  21363.58335648 -.00000275  00000-0  24648-5 0  9992,2 49442  53.2175 265.1078 0002046  28.5142 237.6017 15.73204525  8537,6727.882,91.533,351.124,348.371,0.0
49442.0,STARLINK-3098,PAYLOAD,2021-12-29 22:00:00,15.73258399,0.00021,53.2169,263.4739,26.3922,328.8281,-0.00043227,-0.00061007,0.0,0 STARLINK-3098,1 49442U 21104AL  21363.91667824 -.00061007  00000-0 -43227-3 0  9996,2 49442  53.2169 263.4739 0002100  26.3922 328.8281 15.73258399  8587,6727.729,91.53,351.00699999999995,348.181,0.0
49442.0,STARLINK-3098,PAYLOAD,2021-12-29 22:01:15,15.73234581,0.0001824,53.217,263.4687,35.0991,325.0149,0.00015688,0.00021486,0.0,0 STARLINK-3098,1 49442U 21104AL  21363.91754018  .00021486  00000-0  15688-3 0  9993,2 49442  53.2170 263.4687 0001824  35.0991 325.0149 15.73234581  7506,6727.797,91.531,350.889,348.434,0.0
49442.0,STARLINK-3098,PAYLOAD,2021-12-30 02:35:41,15.73230849,0.0002292,53.2172,262.5265,26.9494,333.1645,9.5165e-05,0.00012773,0.0,0 STARLINK-3098,1 49442U 21104AL  21364.10812209  .00012773  00000-0  95165-4 0  9990,2 49442  53.2172 262.5265 0002292  26.9494 333.1645 15.73230849  8614,6727.807,91.531,351.214,348.13,0.0
49442.0,STARLINK-3098,PAYLOAD,2021-12-30 14:00:01,15.73198553,0.0001811,53.2163,260.1738,20.8239,152.3046,-0.00019327,-0.00027655,0.0,0 STARLINK-3098,1 49442U 21104AL  21364.58334491 -.00027655  00000-0 -19327-3 0  9996,2 49442  53.2163 260.1738 0001811  20.8239 152.3046 15.73198553  3682,6727.899,91.533,350.983,348.546,0.0
49442.0,STARLINK-3098,PAYLOAD,2021-12-30 22:00:01,15.73212442,0.0001925,53.2166,258.5258,20.4038,241.7086,-0.00043199,-0.00060848,0.0,0 STARLINK-3098,1 49442U 21104AL  21364.91668981 -.00060848  00000-0 -43199-3 0  9992,2 49442  53.2166 258.5258 0001925  20.4038 241.7086 15.73212442  8745,6727.86,91.532,351.02,348.43,0.0
49442.0,STARLINK-3098,PAYLOAD,2021-12-30 22:24:56,15.73191766,0.000204,53.2172,258.4397,20.9076,339.2027,-2.671300000000001e-05,-4.367e-05,0.0,0 STARLINK-3098,1 49442U 21104AL  21364.93398246 -.00004367  00000-0 -26713-4 0  9996,2 49442  53.2172 258.4397 0002040  20.9076 339.2027 15.73191766  7664,6727.919,91.534,351.156,348.411,0.0
49442.0,STARLINK-3098,PAYLOAD,2021-12-31 14:00:01,15.7314029,0.0001939,53.2168,255.2257,27.0015,52.8411,0.00055338,0.00077566,0.0,0 STARLINK-3098,1 49442U 21104AL  21365.58334491  .00077566  00000-0  55338-3 0  9993,2 49442  53.2168 255.2257 0001939  27.0015  52.8411 15.73140290  3696,6728.065,91.537,351.235,348.626,0.0
49442.0,STARLINK-3098,PAYLOAD,2021-12-31 21:17:09,15.73179657,0.0001745,53.2169,253.7243,38.9208,321.1938,-1.1556e-05,-2.241e-05,0.0,0 STARLINK-3098,1 49442U 21104AL  21365.88691973 -.00002241  00000-0 -11556-4 0  9992,2 49442  53.2169 253.7243 0001745  38.9208 321.1938 15.73179657  7818,6727.953,91.534,350.992,348.644,0.0
49442.0,STARLINK-3098,PAYLOAD,2022-01-01 06:00:00,15.73209972,0.0002207,53.216,251.9288,26.5717,231.0687,0.00013592,0.00018506,0.0,0 STARLINK-3098,1 49442U 21104AL  22001.25001157  .00018506  00000-0  13592-3 0  9990,2 49442  53.2160 251.9288 0002207  26.5717 231.0687 15.73209972  8950,6727.8669999999975,91.533,351.217,348.247,0.0
